#cP2022 11 14  0  0  0.00000000      96 ORBIT IGb14 HLM  IGS
## 2236  86400.00000000   900.00000000 59897 0.0000000000000
+   31   G01G02G03G04G05G06G07G08G09G10G11G12G13G14G15G16G17
+        G18G19G20G21G22G23G24G25G26G27G29G30G31G32  0  0  0
+          0  0  0  0  0  0  0  0  0  0  0  0  0  0  0  0  0
+          0  0  0  0  0  0  0  0  0  0  0  0  0  0  0  0  0
+          0  0  0  0  0  0  0  0  0  0  0  0  0  0  0  0  0
++         2  2  2  2  2  2  2  2  2  2  3  2  2  2  2  2  2
++         3  2  2  2  2  2  1  2  2  2  2  2  2  2  0  0  0
++         0  0  0  0  0  0  0  0  0  0  0  0  0  0  0  0  0
++         0  0  0  0  0  0  0  0  0  0  0  0  0  0  0  0  0
++         0  0  0  0  0  0  0  0  0  0  0  0  0  0  0  0  0
%c G  cc GPS ccc cccc cccc cccc cccc ccccc ccccc ccccc ccccc
%c cc cc ccc ccc cccc cccc cccc cccc ccccc ccccc ccccc ccccc
%f  1.2500000  1.025000000  0.00000000000  0.000000000000000
%f  0.0000000  0.000000000  0.00000000000  0.000000000000000
%i    0    0    0    0      0      0      0      0         0
%i    0    0    0    0      0      0      0      0         0
/* FINAL ORBIT COMBINATION FROM WEIGHTED AVERAGE OF:        
/* cod emr esa gfz grg jpl mit ngs sio                      
/* REFERENCED TO IGS TIME (IGST) AND TO WEIGHTED MEAN POLE: 
/* PCV:IGS20_2233 OL/AL:FES2004  NONE     Y  ORB:CMB CLK:CMB
*  2022 11 14  6 45  0.00000000
PG01  20762.037864  12224.209614  11244.547771    252.077048  3  5  4  73       
PG02 -21461.774580  -8120.462833 -12569.686996   -637.926528  3  6  4  87       
PG03  14029.736975   4781.007474  21918.181324   -372.628450  4  4  2 102       
PG04  24965.794734   1768.797715   9047.193982    -86.738616  8  4  4  78       
PG05  -8401.511706 -17552.134603 -18195.355904   -104.231724  3  6  4  84       
PG06   -301.133932 -18794.030914  18798.048347    517.726928  5  7  6 108       
PG07  17166.974156  -2199.095338 -19852.787234    287.613283  4  7  6  96       
PG08  18509.605374   8015.019018 -17507.104698    -93.737468  7  3  3  73       
PG09  25407.578981  -7604.779279  -1924.606967   -268.934408  5  6  3  95       
PG10 -11337.706637  23066.007625  -5846.383042    -11.833999  2  5  4  94       
PG11 -10141.065414 -22660.928081   9497.931038    -39.498206  7 10  4  83       
PG12 -13522.777192  -6410.653686  21676.883036   -304.044871  6  4  5 104       
PG13 -10635.298295 -13321.074050 -20591.621924    424.269973  4  7  4  96       
PG14  13436.603786 -21497.128532  -7715.301986    -83.228371  6  6  7  62       
PG15 -19476.566597  -6629.493309 -17393.734064    -12.564138  4  5  3  72       
PG16   2692.027366  21372.556356 -15505.525065   -526.891625  6  7  7 101       
PG17  18300.985275 -12963.182022  14728.411393    677.735251  5  5  3  95       
PG18 -15461.744776   4286.678006 -21192.138413    -21.356012  7  6  7  95       
PG19   7583.079918 -14775.792985  20431.842611    237.129896  6  6  4 108       
PG20  -1595.315461 -25628.394095  -7221.884375    470.281717  4  5  4  78       
PG21  21331.111247  16225.070752   3660.171946    156.086922  5  6  5  96       
PG22  -4048.827138  15665.620661  21457.458121    364.236220  4  5  5  97       
PG23 -15248.061986  15314.006124 -15353.937804     -1.031290  5  8  4  86       
PG24 -21971.540338 -13668.646009   6562.431445     59.712927  3  4  4  89       
PG25 -16360.254957   5955.663950  19680.707698    392.428262  4  6  2 101       
PG26  -2862.305218  25822.773536  -4673.841497    235.730820  4  9  7 102       
PG27   6933.952731  13800.469121 -21863.665804    178.342856  6  2  1  95       
PG29 -26297.385149   4020.484083   -349.868603   -567.068280  3  6  5  77       
PG30   8460.330362 -13730.982699 -20980.970758   -536.715435  4  6  6  93       
PG31    817.863502  19676.089675  17443.133776   -200.125066  4  7  5  77       
PG32 -14864.145936  15040.645751  16098.373950   -295.656082  6  6  6  74       
*  2022 11 14  7  0  0.00000000
PG01  21464.767441  13166.261501   8663.325488    252.071966  4  6  4  77       
PG02 -22359.441589  -9209.103043 -10121.090847   -637.924920  3  6  4  76       
PG03  13340.492259   7201.971831  21696.213343   -372.630295  4  4     99       
PG04  23864.309271   2232.994456  11558.340099    -86.732684  8  3  5  85       
PG05  -7809.910466 -19422.268722 -16448.331114   -104.232660  4  6  4  71       
PG06   1298.357789 -17261.072762  20186.203274    517.735300  5  7  6 102       
PG07  18673.541934   -491.755047 -18640.183608    287.609219  4  8  7  87       
PG08  16548.101658   8693.080504 -19049.139485    -93.738415  7  3  3  85       
PG09  25527.224006  -7358.520879    915.639342   -268.929321  5  6  3 101       
PG10 -11328.439831  22186.034800  -8588.247307    -11.835026  3  4  4  69       
PG11  -9172.117123 -21879.562616  11986.841113    -39.503577  8 10  5  95       
PG12 -12656.162947  -8775.893950  21382.392343   -304.048932  6  4  4 101       
PG13  -8295.682376 -13649.294341 -21425.696518    424.276250  3  7  3  88       
PG14  13377.079523 -20429.014131 -10297.961693    -83.223830  6  6  7  46       
PG15 -17686.609911  -7526.628969 -18889.123248    -12.561299  4  6  3  74       
PG16   1933.528970  22819.614714 -13326.573617   -526.891738  5  7  7  94       
PG17  19786.869088 -13094.918081  12451.589157    677.738504  5  5  4  88       
PG18 -17036.126047   2520.317164 -20260.467456    -21.368616  6  5  7  87       
PG19   9892.944631 -15006.616829  19231.861518    237.134264  6  6  4  98       
PG20  -1253.912232 -26265.537986  -4515.898439    470.278527  4  5  4  82       
PG21  21347.159572  16492.930204    862.596144    156.085926  5  6  6 109       
PG22  -6352.519566  15981.606437  20618.035988    364.243000  4  4  6 100       
PG23 -14950.940480  13462.449174 -17274.609102     -1.031046  5  7  4  89       
PG24 -22256.612629 -14302.093304   3869.237337     59.698545  3  5  3  70       
PG25 -15848.946327   3632.728740  20652.025211    392.431625  5  6  3  98       
PG26  -3278.979727  26112.105368  -1882.629289    235.731834  4  8  7  75       
PG27   4551.568409  14418.057753 -22056.724166    178.335184  5  2  1  85       
PG29 -26205.024526   3803.068013   2532.885361   -567.070630  2  6  5  75       
PG30  10185.269997 -11991.749341 -21299.977096   -536.715203  5  6  6  92       
PG31   -761.913495  18238.276208  18970.847894   -200.126090  4  7  5  84       
PG32 -16565.481433  15289.420849  14035.540154   -295.667427  6  6  6  83       
*  2022 11 14  7 15  0.00000000
PG01  22000.246127  13858.489226   5934.124271    252.066873  4  6  4  82       
PG02 -23080.457521 -10065.978704  -7491.289676   -637.923335  3  6  4  63       
PG03  12793.776888   9609.791333  21097.031162   -372.632169  4  3  1  95       
PG04  22526.243709   2828.866285  13871.670714    -86.726681  7  3  6  90       
PG05  -7352.304824 -21112.604423 -14420.243242   -104.234325  5  6  4  92       
PG06   3082.636744 -15728.435348  21228.238918    517.743663  5  6  6 100       
PG07  20144.466320   1026.466934 -17100.544621    287.605037  3  8  7 104       
PG08  14476.092589   9525.999437 -20268.064739    -93.740713  7  4  3  93       
PG09  25356.703356  -7014.091202   3740.158893   -268.924274  5  6  4  99       
PG10 -11303.269241  21007.727994 -11178.735776    -11.837424  4  3  4  67       
PG11  -7973.064022 -20958.667020  14269.928268    -39.508958  8 10  5  88       
PG12 -11930.833498 -11128.731226  20711.197006   -304.052816  6  5  4  99       
PG13  -5903.726364 -14116.352918 -21897.829455    424.282279  3  7  3  90       
PG14  13301.566730 -19085.552008 -12702.214242    -83.219226  5  6  7  72       
PG15 -15808.738462  -8573.057886 -20073.311988    -12.558488  4  6  3  83       
PG16   1326.355805  24058.548072 -10916.658479   -526.891933  5  7  7 105       
PG17  21007.545846 -13241.147524   9966.100727    677.741575  4  5  4  77       
PG18 -18612.016830    928.567931 -18981.364255    -21.381164  5  5  7  69       
PG19  12033.941780 -15328.969245  17691.973725    237.138758  7  7  3 103       
PG20   -961.148676 -26610.812449  -1733.223579    470.275693  4  5  4  86       
PG21  21127.403173  16574.217105  -1949.076652    156.084743  5  6  6 104       
PG22  -8529.666923  16394.279775  19435.138980    364.249508  4  4  6 101       
PG23 -14716.492728  11400.796225 -18896.584225     -1.030797  5  6  3  90       
PG24 -22331.310274 -14731.837397   1110.722730     59.684152  4  5  3  85       
PG25 -15436.672926   1200.140417  21256.734366    392.435008  6  5  4 101       
PG26  -3633.534667  26105.443644    941.623374    235.732788  4  8  7  79       
PG27   2201.662465  15165.303665 -21877.901742    178.327550  5  3  1 104       
PG29 -25809.751377   3504.727313   5372.234742   -567.073141  2  6  5  62       
PG30  12000.627834 -10328.320509 -21249.182704   -536.714919  5  6  5  96       
PG31  -2522.128445  16775.800737  20163.398403   -200.127026  5  7  5  93       
PG32 -18019.141791  15547.739496  11731.037282   -295.678752  7  6  6  74       
EOF
